start=new Date('2022-09-30T00:00:00.000Z').valueOf();
sats=[{"FILE":"3587117","ECCENTRICITY":"0.00019250","ARG_OF_PERICENTER":"55.1792","MEAN_ELEMENT_THEORY":"SGP4","SEMIMAJOR_AXIS":"6917.887","INCLINATION":"53.2172","NORAD_CAT_ID":"52536","COUNTRY_CODE":"US","REF_FRAME":"TEME","PERIAPSIS":"538.420","APOAPSIS":"541.084","CENTER_NAME":"EARTH","REV_AT_EPOCH":"2169","MEAN_MOTION_DOT":"0.00003439","EPHEMERIS_TYPE":"0","TIME_SYSTEM":"UTC","OBJECT_TYPE":"PAYLOAD","LAUNCH_DATE":"2022-05-13","CLASSIFICATION_TYPE":"U","EPOCH":"2022-09-29T19:13:29.920800","RA_OF_ASC_NODE":"11.5254","RCS_SIZE":"LARGE","DECAY_DATE":null,"MEAN_ANOMALY":"304.9381","TLE_LINE2":"2 52536  53.2172  11.5254 0001925  55.1792 304.9381 15.08837840 21697","TLE_LINE1":"1 52536U 22051D   22272.80104075  .00003439  00000-0  23406-3 0  9998","GP_ID":"213838933","OBJECT_ID":"2022-051D","BSTAR":"0.00023406000000","SITE":"AFWTR","PERIOD":"95.438","MEAN_MOTION":"15.08837840","ELEMENT_SET_NO":"999","MEAN_MOTION_DDOT":"0.0000000000000","OBJECT_NAME":"STARLINK-3964"},{"OBJECT_ID":"2022-051E","BSTAR":"-0.00015924000000","MEAN_MOTION":"15.08825816","PERIOD":"95.438","SITE":"AFWTR","MEAN_MOTION_DDOT":"0.0000000000000","OBJECT_NAME":"STARLINK-3897","ELEMENT_SET_NO":"999","RCS_SIZE":"LARGE","DECAY_DATE":null,"MEAN_ANOMALY":"260.9516","TLE_LINE1":"1 52537U 22051E   22272.59864639 -.00002820  00000-0 -15924-3 0  9995","GP_ID":"213839250","TLE_LINE2":"2 52537  53.2209  12.4331 0001060  99.1596 260.9516 15.08825816 21663","PERIAPSIS":"539.055","REF_FRAME":"TEME","CENTER_NAME":"EARTH","APOAPSIS":"540.522","EPHEMERIS_TYPE":"0","MEAN_MOTION_DOT":"-0.00002820","REV_AT_EPOCH":"2166","TIME_SYSTEM":"UTC","OBJECT_TYPE":"PAYLOAD","LAUNCH_DATE":"2022-05-13","EPOCH":"2022-09-29T14:22:03.048096","CLASSIFICATION_TYPE":"U","RA_OF_ASC_NODE":"12.4331","FILE":"3587117","ECCENTRICITY":"0.00010600","ARG_OF_PERICENTER":"99.1596","MEAN_ELEMENT_THEORY":"SGP4","INCLINATION":"53.2209","SEMIMAJOR_AXIS":"6917.924","NORAD_CAT_ID":"52537","COUNTRY_CODE":"US"},{"ELEMENT_SET_NO":"999","MEAN_MOTION_DDOT":"0.0000000000000","OBJECT_NAME":"STARLINK-3933","SITE":"AFWTR","PERIOD":"95.439","MEAN_MOTION":"15.08818962","BSTAR":"-0.00022094000000","OBJECT_ID":"2022-051F","TLE_LINE2":"2 52538  53.2180  12.1679 0001520  57.5659 302.5480 15.08818962 21671","GP_ID":"213838356","TLE_LINE1":"1 52538U 22051F   22272.65752566 -.00003800  00000-0 -22094-3 0  9993","MEAN_ANOMALY":"302.5480","DECAY_DATE":null,"RCS_SIZE":"LARGE","CLASSIFICATION_TYPE":"U","EPOCH":"2022-09-29T15:46:50.217024","RA_OF_ASC_NODE":"12.1679","LAUNCH_DATE":"2022-05-13","OBJECT_TYPE":"PAYLOAD","TIME_SYSTEM":"UTC","MEAN_MOTION_DOT":"-0.00003800","REV_AT_EPOCH":"2167","EPHEMERIS_TYPE":"0","APOAPSIS":"540.861","CENTER_NAME":"EARTH","REF_FRAME":"TEME","PERIAPSIS":"538.758","COUNTRY_CODE":"US","NORAD_CAT_ID":"52538","INCLINATION":"53.2180","SEMIMAJOR_AXIS":"6917.945","MEAN_ELEMENT_THEORY":"SGP4","ARG_OF_PERICENTER":"57.5659","ECCENTRICITY":"0.00015200","FILE":"3587117"},{"MEAN_ANOMALY":"322.8106","TLE_LINE1":"1 52539U 22051G   22272.46248587 -.00000938  00000-0 -40854-4 0  9990","GP_ID":"213808100","TLE_LINE2":"2 52539  53.2184  13.0484 0001804  37.3011 322.8106 15.08832008 21647","RCS_SIZE":"LARGE","DECAY_DATE":null,"BSTAR":"-0.00004085400000","MEAN_MOTION_DDOT":"0.0000000000000","OBJECT_NAME":"STARLINK-3757","ELEMENT_SET_NO":"999","MEAN_MOTION":"15.08832008","PERIOD":"95.438","SITE":"AFWTR","OBJECT_ID":"2022-051G","SEMIMAJOR_AXIS":"6917.905","INCLINATION":"53.2184","MEAN_ELEMENT_THEORY":"SGP4","COUNTRY_CODE":"US","NORAD_CAT_ID":"52539","FILE":"3586894","ARG_OF_PERICENTER":"37.3011","ECCENTRICITY":"0.00018040","LAUNCH_DATE":"2022-05-13","OBJECT_TYPE":"PAYLOAD","EPOCH":"2022-09-29T11:05:58.779168","RA_OF_ASC_NODE":"13.0484","CLASSIFICATION_TYPE":"U","CENTER_NAME":"EARTH","APOAPSIS":"541.018","PERIAPSIS":"538.522","REF_FRAME":"TEME","TIME_SYSTEM":"UTC","EPHEMERIS_TYPE":"0","REV_AT_EPOCH":"2164","MEAN_MOTION_DOT":"-0.00000938"},{"OBJECT_ID":"2022-051H","ELEMENT_SET_NO":"999","OBJECT_NAME":"STARLINK-3940","MEAN_MOTION_DDOT":"0.0000000000000","SITE":"AFWTR","PERIOD":"95.438","MEAN_MOTION":"15.08835028","BSTAR":"-0.00002130400000","DECAY_DATE":null,"RCS_SIZE":"LARGE","TLE_LINE2":"2 52540  53.2178  12.8101 0001782  47.6993 312.4150 15.08835028 21653","GP_ID":"213808585","TLE_LINE1":"1 52540U 22051H   22272.51400763 -.00000627  00000-0 -21304-4 0  9998","MEAN_ANOMALY":"312.4150","TIME_SYSTEM":"UTC","REV_AT_EPOCH":"2165","MEAN_MOTION_DOT":"-0.00000627","EPHEMERIS_TYPE":"0","APOAPSIS":"540.993","CENTER_NAME":"EARTH","REF_FRAME":"TEME","PERIAPSIS":"538.528","RA_OF_ASC_NODE":"12.8101","EPOCH":"2022-09-29T12:20:10.259232","CLASSIFICATION_TYPE":"U","LAUNCH_DATE":"2022-05-13","OBJECT_TYPE":"PAYLOAD","ARG_OF_PERICENTER":"47.6993","ECCENTRICITY":"0.00017820","FILE":"3586894","COUNTRY_CODE":"US","NORAD_CAT_ID":"52540","INCLINATION":"53.2178","SEMIMAJOR_AXIS":"6917.896","MEAN_ELEMENT_THEORY":"SGP4"},{"NORAD_CAT_ID":"52541","COUNTRY_CODE":"US","MEAN_ELEMENT_THEORY":"SGP4","SEMIMAJOR_AXIS":"6917.867","INCLINATION":"53.2193","ECCENTRICITY":"0.00015990","ARG_OF_PERICENTER":"62.8375","FILE":"3586894","EPOCH":"2022-09-29T11:34:27.035904","RA_OF_ASC_NODE":"17.9515","CLASSIFICATION_TYPE":"U","OBJECT_TYPE":"PAYLOAD","LAUNCH_DATE":"2022-05-13","REV_AT_EPOCH":"2157","MEAN_MOTION_DOT":"-0.00000104","EPHEMERIS_TYPE":"0","TIME_SYSTEM":"UTC","REF_FRAME":"TEME","PERIAPSIS":"538.626","APOAPSIS":"540.838","CENTER_NAME":"EARTH","TLE_LINE2":"2 52541  53.2193  17.9515 0001599  62.8375 297.2780 15.08844462 21577","TLE_LINE1":"1 52541U 22051J   22272.48225736 -.00000104  00000-0  11559-4 0  9990","GP_ID":"213808261","MEAN_ANOMALY":"297.2780","DECAY_DATE":null,"RCS_SIZE":"LARGE","SITE":"AFWTR","PERIOD":"95.437","MEAN_MOTION":"15.08844462","ELEMENT_SET_NO":"999","MEAN_MOTION_DDOT":"0.0000000000000","OBJECT_NAME":"STARLINK-3845","BSTAR":"0.00001155900000","OBJECT_ID":"2022-051J"},{"FILE":"3586894","ECCENTRICITY":"0.00017790","ARG_OF_PERICENTER":"50.9102","MEAN_ELEMENT_THEORY":"SGP4","INCLINATION":"53.2201","SEMIMAJOR_AXIS":"6917.971","NORAD_CAT_ID":"52542","COUNTRY_CODE":"US","PERIAPSIS":"538.605","REF_FRAME":"TEME","CENTER_NAME":"EARTH","APOAPSIS":"541.066","EPHEMERIS_TYPE":"0","MEAN_MOTION_DOT":"-0.00011213","REV_AT_EPOCH":"2165","TIME_SYSTEM":"UTC","OBJECT_TYPE":"PAYLOAD","LAUNCH_DATE":"2022-05-13","EPOCH":"2022-09-29T12:14:51.499392","CLASSIFICATION_TYPE":"U","RA_OF_ASC_NODE":"12.8126","RCS_SIZE":"LARGE","DECAY_DATE":null,"MEAN_ANOMALY":"309.2049","GP_ID":"213808423","TLE_LINE1":"1 52542U 22051K   22272.51031828 -.00011213  00000-0 -68803-3 0  9999","TLE_LINE2":"2 52542  53.2201  12.8126 0001779  50.9102 309.2049 15.08810445 21651","OBJECT_ID":"2022-051K","BSTAR":"-0.00068803000000","MEAN_MOTION":"15.08810445","SITE":"AFWTR","PERIOD":"95.439","MEAN_MOTION_DDOT":"0.0000000000000","OBJECT_NAME":"STARLINK-3937","ELEMENT_SET_NO":"999"},{"TLE_LINE2":"2 52543  53.2167  12.7821 0001894  42.9622 317.1518 15.08822742 21652","TLE_LINE1":"1 52543U 22051L   22272.52135571 -.00007879  00000-0 -47768-3 0  9991","GP_ID":"213807685","MEAN_ANOMALY":"317.1518","DECAY_DATE":null,"RCS_SIZE":"LARGE","ELEMENT_SET_NO":"999","OBJECT_NAME":"STARLINK-3926","MEAN_MOTION_DDOT":"0.0000000000000","PERIOD":"95.439","SITE":"AFWTR","MEAN_MOTION":"15.08822742","BSTAR":"-0.00047768000000","OBJECT_ID":"2022-051L","COUNTRY_CODE":"US","NORAD_CAT_ID":"52543","SEMIMAJOR_AXIS":"6917.933","INCLINATION":"53.2167","MEAN_ELEMENT_THEORY":"SGP4","ARG_OF_PERICENTER":"42.9622","ECCENTRICITY":"0.00018940","FILE":"3586894","EPOCH":"2022-09-29T12:30:45.133344","RA_OF_ASC_NODE":"12.7821","CLASSIFICATION_TYPE":"U","LAUNCH_DATE":"2022-05-13","OBJECT_TYPE":"PAYLOAD","TIME_SYSTEM":"UTC","REV_AT_EPOCH":"2165","MEAN_MOTION_DOT":"-0.00007879","EPHEMERIS_TYPE":"0","APOAPSIS":"541.108","CENTER_NAME":"EARTH","REF_FRAME":"TEME","PERIAPSIS":"538.488"},{"MEAN_ANOMALY":"312.3383","GP_ID":"213808815","TLE_LINE1":"1 52544U 22051M   22272.47490898 -.00010566  00000-0 -64754-3 0  9993","TLE_LINE2":"2 52544  53.2169  17.9889 0001607  47.7745 312.3383 15.08795271 21571","RCS_SIZE":"LARGE","DECAY_DATE":null,"BSTAR":"-0.00064754000000","OBJECT_NAME":"STARLINK-3944","MEAN_MOTION_DDOT":"0.0000000000000","ELEMENT_SET_NO":"999","MEAN_MOTION":"15.08795271","PERIOD":"95.440","SITE":"AFWTR","OBJECT_ID":"2022-051M","INCLINATION":"53.2169","SEMIMAJOR_AXIS":"6918.017","MEAN_ELEMENT_THEORY":"SGP4","COUNTRY_CODE":"US","NORAD_CAT_ID":"52544","FILE":"3586894","ARG_OF_PERICENTER":"47.7745","ECCENTRICITY":"0.00016070","LAUNCH_DATE":"2022-05-13","OBJECT_TYPE":"PAYLOAD","EPOCH":"2022-09-29T11:23:52.135872","RA_OF_ASC_NODE":"17.9889","CLASSIFICATION_TYPE":"U","CENTER_NAME":"EARTH","APOAPSIS":"540.994","PERIAPSIS":"538.770","REF_FRAME":"TEME","TIME_SYSTEM":"UTC","EPHEMERIS_TYPE":"0","REV_AT_EPOCH":"2157","MEAN_MOTION_DOT":"-0.00010566"},{"ELEMENT_SET_NO":"999","MEAN_MOTION_DDOT":"0.0000000000000","OBJECT_NAME":"STARLINK-3939","PERIOD":"95.437","SITE":"AFWTR","MEAN_MOTION":"15.08842435","BSTAR":"0.00009874200000","OBJECT_ID":"2022-051N","TLE_LINE2":"2 52545  53.2176  11.6079 0001828  45.0737 315.0403 15.08842435 21690","TLE_LINE1":"1 52545U 22051N   22272.78262850  .00001284  00000-0  98742-4 0  9993","GP_ID":"213839251","MEAN_ANOMALY":"315.0403","DECAY_DATE":null,"RCS_SIZE":"LARGE","RA_OF_ASC_NODE":"11.6079","CLASSIFICATION_TYPE":"U","EPOCH":"2022-09-29T18:46:59.102400","LAUNCH_DATE":"2022-05-13","OBJECT_TYPE":"PAYLOAD","TIME_SYSTEM":"UTC","REV_AT_EPOCH":"2169","MEAN_MOTION_DOT":"0.00001284","EPHEMERIS_TYPE":"0","APOAPSIS":"541.003","CENTER_NAME":"EARTH","REF_FRAME":"TEME","PERIAPSIS":"538.473","COUNTRY_CODE":"US","NORAD_CAT_ID":"52545","INCLINATION":"53.2176","SEMIMAJOR_AXIS":"6917.873","MEAN_ELEMENT_THEORY":"SGP4","ARG_OF_PERICENTER":"45.0737","ECCENTRICITY":"0.00018280","FILE":"3587117"}];
